{
  "type": "FeatureCollection",
  "features": [
    {
      "type": "Feature",
      "properties": {
        "norad_id": 43823,
        "name": "GEO-KOMPSAT-2A",
        "group": "weather",
        "lat": -0.016963415050901414,
        "lon": 49.88220654320394,
        "alt_km": 35788.8946159934,
        "timestamp": "2025-12-04T13:52:00.091627+00:00",
        "meta_object_name": "GEO-KOMPSAT-2A",
        "meta_object_id": "2018-100A",
        "meta_epoch": "2025-12-04T07:29:14.531136",
        "meta_mean_motion": 1.00269385,
        "meta_eccentricity": 5.128e-05,
        "meta_inclination": 0.0604,
        "meta_ra_of_asc_node": 120.4419,
        "meta_arg_of_pericenter": 94.8748,
        "meta_mean_anomaly": 98.6384,
        "meta_ephemeris_type": 0,
        "meta_classification_type": "U",
        "meta_norad_cat_id": 43823,
        "meta_element_set_no": 999,
        "meta_rev_at_epoch": 2567,
        "meta_bstar": 0,
        "meta_mean_motion_dot": -3.28e-06,
        "meta_mean_motion_ddot": 0,
        "tle_line1": "1 43823U 18100A   25338.31197374 -.00000328  00000+0  00000+0 0  9998",
        "tle_line2": "2 43823   0.0604 120.4419 0000512  94.8748  98.6384  1.00269385 25673"
      },
      "geometry": {
        "type": "Point",
        "coordinates": [
          49.88220654320394,
          -0.016963415050901414
        ]
      }
    },
    {
      "type": "Feature",
      "properties": {
        "norad_id": 44387,
        "name": "METEOR-M2 2",
        "group": "weather",
        "lat": -50.6350893958495,
        "lon": -30.786141898970406,
        "alt_km": 818.3055788531183,
        "timestamp": "2025-12-04T13:52:00.091638+00:00",
        "meta_object_name": "METEOR-M2 2",
        "meta_object_id": "2019-038A",
        "meta_epoch": "2025-12-04T07:21:50.646816",
        "meta_mean_motion": 14.24286068,
        "meta_eccentricity": 9.248e-05,
        "meta_inclination": 98.8964,
        "meta_ra_of_asc_node": 317.9329,
        "meta_arg_of_pericenter": 165.0252,
        "meta_mean_anomaly": 195.0954,
        "meta_ephemeris_type": 0,
        "meta_classification_type": "U",
        "meta_norad_cat_id": 44387,
        "meta_element_set_no": 999,
        "meta_rev_at_epoch": 33355,
        "meta_bstar": 0.00016796912,
        "meta_mean_motion_dot": 3.42e-06,
        "meta_mean_motion_ddot": 0,
        "tle_line1": "1 44387U 19038A   25338.30683619  .00000342  00000+0  16797-3 0  9995",
        "tle_line2": "2 44387  98.8964 317.9329 0000924 165.0252 195.0954 14.24286068333555"
      },
      "geometry": {
        "type": "Point",
        "coordinates": [
          -30.786141898970406,
          -50.6350893958495
        ]
      }
    },
    {
      "type": "Feature",
      "properties": {
        "norad_id": 47719,
        "name": "ARKTIKA-M 1",
        "group": "weather",
        "lat": -60.358998063529306,
        "lon": -32.22289136257414,
        "alt_km": 1165.9120949444177,
        "timestamp": "2025-12-04T13:52:00.091651+00:00",
        "meta_object_name": "ARKTIKA-M 1",
        "meta_object_id": "2021-016A",
        "meta_epoch": "2025-12-01T02:41:41.634816",
        "meta_mean_motion": 2.00613156,
        "meta_eccentricity": 0.71974708,
        "meta_inclination": 63.1756,
        "meta_ra_of_asc_node": 85.6045,
        "meta_arg_of_pericenter": 269.084,
        "meta_mean_anomaly": 15.7076,
        "meta_ephemeris_type": 0,
        "meta_classification_type": "U",
        "meta_norad_cat_id": 47719,
        "meta_element_set_no": 999,
        "meta_rev_at_epoch": 3481,
        "meta_bstar": 0,
        "meta_mean_motion_dot": -1.2e-07,
        "meta_mean_motion_ddot": 0,
        "tle_line1": "1 47719U 21016A   25335.11228744 -.00000012  00000+0  00000+0 0  9997",
        "tle_line2": "2 47719  63.1756  85.6045 7197470 269.0840  15.7076  2.00613156 34816"
      },
      "geometry": {
        "type": "Point",
        "coordinates": [
          -32.22289136257414,
          -60.358998063529306
        ]
      }
    },
    {
      "type": "Feature",
      "properties": {
        "norad_id": 49008,
        "name": "FENGYUN 3E",
        "group": "weather",
        "lat": 36.785923928649694,
        "lon": -27.41512352599686,
        "alt_km": 822.9946716213071,
        "timestamp": "2025-12-04T13:52:00.091667+00:00",
        "meta_object_name": "FENGYUN 3E",
        "meta_object_id": "2021-062A",
        "meta_epoch": "2025-12-04T06:55:36.120864",
        "meta_mean_motion": 14.19878295,
        "meta_eccentricity": 7.209e-05,
        "meta_inclination": 98.7476,
        "meta_ra_of_asc_node": 338.91,
        "meta_arg_of_pericenter": 320.2854,
        "meta_mean_anomaly": 39.827,
        "meta_ephemeris_type": 0,
        "meta_classification_type": "U",
        "meta_norad_cat_id": 49008,
        "meta_element_set_no": 999,
        "meta_rev_at_epoch": 22892,
        "meta_bstar": 5.3531589e-05,
        "meta_mean_motion_dot": 7e-07,
        "meta_mean_motion_ddot": 0,
        "tle_line1": "1 49008U 21062A   25338.28861251  .00000070  00000+0  53532-4 0  9994",
        "tle_line2": "2 49008  98.7476 338.9100 0000720 320.2854  39.8270 14.19878295228927"
      },
      "geometry": {
        "type": "Point",
        "coordinates": [
          -27.41512352599686,
          36.785923928649694
        ]
      }
    },
    {
      "type": "Feature",
      "properties": {
        "norad_id": 51850,
        "name": "GOES 18",
        "group": "weather",
        "lat": 0.002255322385917247,
        "lon": 144.6180283085575,
        "alt_km": 35789.423323022915,
        "timestamp": "2025-12-04T13:52:00.091679+00:00",
        "meta_object_name": "GOES 18",
        "meta_object_id": "2022-021A",
        "meta_epoch": "2025-12-04T06:13:36.774624",
        "meta_mean_motion": 1.00270773,
        "meta_eccentricity": 8.73e-05,
        "meta_inclination": 0.0096,
        "meta_ra_of_asc_node": 57.4744,
        "meta_arg_of_pericenter": 234.4038,
        "meta_mean_anomaly": 97.8564,
        "meta_ephemeris_type": 0,
        "meta_classification_type": "U",
        "meta_norad_cat_id": 51850,
        "meta_element_set_no": 999,
        "meta_rev_at_epoch": 463,
        "meta_bstar": 0,
        "meta_mean_motion_dot": 1.12e-06,
        "meta_mean_motion_ddot": 0,
        "tle_line1": "1 51850U 22021A   25338.25945341  .00000112  00000+0  00000+0 0  9992",
        "tle_line2": "2 51850   0.0096  57.4744 0000873 234.4038  97.8564  1.00270773  4638"
      },
      "geometry": {
        "type": "Point",
        "coordinates": [
          144.6180283085575,
          0.002255322385917247
        ]
      }
    },
    {
      "type": "Feature",
      "properties": {
        "norad_id": 54234,
        "name": "NOAA 21 (JPSS-2)",
        "group": "weather",
        "lat": 53.26893227860605,
        "lon": -96.91544744983149,
        "alt_km": 820.1188091270069,
        "timestamp": "2025-12-04T13:52:00.091690+00:00",
        "meta_object_name": "NOAA 21 (JPSS-2)",
        "meta_object_id": "2022-150A",
        "meta_epoch": "2025-12-04T06:50:44.872512",
        "meta_mean_motion": 14.19520656,
        "meta_eccentricity": 0.00025156,
        "meta_inclination": 98.7449,
        "meta_ra_of_asc_node": 274.6995,
        "meta_arg_of_pericenter": 53.9232,
        "meta_mean_anomaly": 306.2177,
        "meta_ephemeris_type": 0,
        "meta_classification_type": "U",
        "meta_norad_cat_id": 54234,
        "meta_element_set_no": 999,
        "meta_rev_at_epoch": 15889,
        "meta_bstar": 0.00012739641,
        "meta_mean_motion_dot": 2.25e-06,
        "meta_mean_motion_ddot": 0,
        "tle_line1": "1 54234U 22150A   25338.28524158  .00000225  00000+0  12740-3 0  9999",
        "tle_line2": "2 54234  98.7449 274.6995 0002515  53.9232 306.2177 14.19520656158896"
      },
      "geometry": {
        "type": "Point",
        "coordinates": [
          -96.91544744983149,
          53.26893227860605
        ]
      }
    },
    {
      "type": "Feature",
      "properties": {
        "norad_id": 54743,
        "name": "METEOSAT-12 (MTG-I1)",
        "group": "weather",
        "lat": -0.6981635608636905,
        "lon": -78.64069486717318,
        "alt_km": 35780.22379838455,
        "timestamp": "2025-12-04T13:52:00.091704+00:00",
        "meta_object_name": "METEOSAT-12 (MTG-I1)",
        "meta_object_id": "2022-170C",
        "meta_epoch": "2025-12-04T05:09:49.421376",
        "meta_mean_motion": 1.00273795,
        "meta_eccentricity": 0.00015299,
        "meta_inclination": 0.7187,
        "meta_ra_of_asc_node": 30.1576,
        "meta_arg_of_pericenter": 217.1226,
        "meta_mean_anomaly": 263.1859,
        "meta_ephemeris_type": 0,
        "meta_classification_type": "U",
        "meta_norad_cat_id": 54743,
        "meta_element_set_no": 999,
        "meta_rev_at_epoch": 1102,
        "meta_bstar": 0,
        "meta_mean_motion_dot": 9e-08,
        "meta_mean_motion_ddot": 0,
        "tle_line1": "1 54743U 22170C   25338.21515534  .00000009  00000+0  00000+0 0  9999",
        "tle_line2": "2 54743   0.7187  30.1576 0001529 217.1226 263.1859  1.00273795 11020"
      },
      "geometry": {
        "type": "Point",
        "coordinates": [
          -78.64069486717318,
          -0.6981635608636905
        ]
      }
    }
  ]
}